{
  "type": "FeatureCollection",
  "features": [
    {
      "type": "Feature",
      "properties": {
        "OBJECT_NAME": "NVS-01 (IRNSS-1J)",
        "OBJECT_ID": "2023-076A",
        "EPOCH": "2025-11-29T23:03:01.899360",
        "MEAN_MOTION": 1.00269345,
        "ECCENTRICITY": 0.0008411,
        "INCLINATION": 2.6527,
        "RA_OF_ASC_NODE": 252.0685,
        "ARG_OF_PERICENTER": 4.8477,
        "MEAN_ANOMALY": 287.5265,
        "EPHEMERIS_TYPE": 0,
        "CLASSIFICATION_TYPE": "U",
        "NORAD_CAT_ID": 56759,
        "ELEMENT_SET_NO": 999,
        "REV_AT_EPOCH": 911,
        "BSTAR": 0,
        "MEAN_MOTION_DOT": -3.14e-06,
        "MEAN_MOTION_DDOT": 0,
        "norad_id": 56759,
        "name": "NVS-01 (IRNSS-1J)",
        "group": "gnss",
        "longitude_deg": NaN,
        "latitude_deg": NaN,
        "alt_km": NaN,
        "orbit_class": "HEO",
        "timestamp": "2025-11-30T09:33:02.540067+00:00"
      },
      "geometry": {
        "type": "Point",
        "coordinates": [
          NaN,
          NaN
        ]
      }
    },
    {
      "type": "Feature",
      "properties": {
        "OBJECT_NAME": "NVS-02 (IRNSS-1K)",
        "OBJECT_ID": "2025-020A",
        "EPOCH": "2025-11-30T03:22:19.123104",
        "MEAN_MOTION": 2.17582046,
        "ECCENTRICITY": 0.7348439,
        "INCLINATION": 21.0153,
        "RA_OF_ASC_NODE": 332.2115,
        "ARG_OF_PERICENTER": 18.064,
        "MEAN_ANOMALY": 358.2183,
        "EPHEMERIS_TYPE": 0,
        "CLASSIFICATION_TYPE": "U",
        "NORAD_CAT_ID": 62850,
        "ELEMENT_SET_NO": 999,
        "REV_AT_EPOCH": 664,
        "BSTAR": 0.00014881,
        "MEAN_MOTION_DOT": 2.81e-06,
        "MEAN_MOTION_DDOT": 0,
        "norad_id": 62850,
        "name": "NVS-02 (IRNSS-1K)",
        "group": "gnss",
        "longitude_deg": NaN,
        "latitude_deg": NaN,
        "alt_km": NaN,
        "orbit_class": "HEO",
        "timestamp": "2025-11-30T09:33:02.569949+00:00"
      },
      "geometry": {
        "type": "Point",
        "coordinates": [
          NaN,
          NaN
        ]
      }
    }
  ]
}