NVS-01 (IRNSS-1J)       
1 56759U 23076A   25333.96043865 -.00000314  00000+0  00000+0 0  9994
2 56759   2.6527 252.0685 0008411   4.8477 287.5265  1.00269345  9114
NVS-02 (IRNSS-1K)       
1 62850U 25020A   25334.14049911  .00000281  00000+0  14881-3 0  9991
2 62850  21.0153 332.2115 7348439  18.0640 358.2183  2.17582046  6640
